INTELSAT 23 (IS-23)     
1 38867U 12057A   26204.81565147 -.00000280  00000+0  00000+0 0  9997
2 38867   0.0202 310.4150 0000277 228.4039   3.3362  1.00269114 50327
BEIDOU-2 G6             
1 38953U 12059A   26204.62894659 -.00000175  00000+0  00000+0 0  9990
2 38953   4.5115  73.1264 0008928 329.8199 208.8701  1.00273149 50274
LUCH-5B                 
1 38977U 12061A   26204.82299752 -.00000141  00000+0  00000+0 0  9997
2 38977  10.5609  49.5130 0003880 141.5559  30.4474  1.00270938 49979
YAMAL 300K              
1 38978U 12061B   26203.57930361  .00000075  00000+0  00000+0 0  9992
2 38978   0.0092 114.3785 0000158  10.6714 206.7639  1.00270995 49986
STAR ONE C3             
1 38991U 12062A   26204.52617139 -.00000244  00000+0  00000+0 0  9998
2 38991   0.0177  52.3614 0002594  73.6373 289.6838  1.00269775 50126
EUTELSAT 21B            
1 38992U 12062B   26204.83033860  .00000135  00000+0  00000+0 0  9994
2 38992   0.0662 353.1076 0003236 138.8091 130.1602  1.00275020 50191
ECHOSTAR 16             
1 39008U 12065A   26204.74273454 -.00000277  00000+0  00000+0 0  9999
2 39008   0.0172  65.4051 0002134  53.5886  28.3631  1.00271213 50014
ZHONGXING-12            
1 39017U 12067A   26203.84553722 -.00000202  00000+0  00000+0 0  9998
2 39017   0.0204 121.3900 0002920 355.9520 215.1228  1.00270979 49869
EUTELSAT 70B            
1 39020U 12069A   26204.84011839 -.00000038  00000+0  00000+0 0  9990
2 39020   0.0629 349.4801 0003435 132.4486 192.5782  1.00270691 49873
YAMAL 402               
1 39022U 12070A   26203.69645782  .00000088  00000+0  00000+0 0  9990
2 39022   1.3532  83.7147 0003855  31.0616 131.2827  1.00273493 49758
SKYNET 5D               
1 39034U 12075A   26204.83665171  .00000104  00000+0  00000+0 0  9998
2 39034   0.0707 349.8636 0003825 142.9466 162.7334  1.00276618 49521
MEXSAT 3                
1 39035U 12075B   26204.64084015  .00000000  00000+0  00000+0 0  9995
2 39035   0.0241  62.1207 0000957  61.5436 293.6422  1.00276091  7419
TDRS 11                 
1 39070U 13004A   26204.79164470  .00000082  00000+0  00000+0 0  9997
2 39070   3.5744  31.8222 0005146  30.7662 349.6494  1.00266198 47061
AMAZONAS 3              
1 39078U 13006A   26204.81409147 -.00000277  00000+0  00000+0 0  9990
2 39078   0.0640 237.4217 0003697 275.3051  20.8640  1.00270063 45281
AZERSPACE 1             
1 39079U 13006B   26204.83526505  .00000138  00000+0  00000+0 0  9996
2 39079   0.0340 269.9213 0002279 238.8168 139.5032  1.00273250 49179
SBIRS GEO-2 (USA 241)   
1 39120U 13011A   26204.53111141 -.00000285  00000+0  00000+0 0  9996
2 39120   4.5655  52.5001 0001845  67.8629 322.2994  1.00271321 48900
EUTELSAT 117 WEST A     
1 39122U 13012A   26204.61006031 -.00000008  00000+0  00000+0 0  9992
2 39122   0.0278 304.6901 0003011 176.0459 283.4132  1.00272347 48793
ANIK G1                 
1 39127U 13014A   26204.59102509 -.00000069  00000+0  00000+0 0  9990
2 39127   0.0636 258.0416 0002185 228.9140 279.8346  1.00272538 48613
ZHONGXING-11            
1 39157U 13020A   26204.84557843 -.00000285  00000+0  00000+0 0  9993
2 39157   0.0357 279.2487 0002430 164.1668 260.4759  1.00272554 48261
EUTELSAT 7B             
1 39163U 13022A   26204.88030727  .00000053  00000+0  00000+0 0  9995
2 39163   0.0647 356.0840 0003157  57.5951 211.8218  1.00272667 48315
WGS F5 (USA 243)        
1 39168U 13024A   26204.53059141  .00000000  00000+0  00000+0 0  9997
2 39168   0.0234  61.1667 0000316  74.9413 303.6788  1.00269796 47537
SES-6                   
1 39172U 13026A   26204.81816480 -.00000256  00000+0  00000+0 0  9996
2 39172   0.0178  31.5199 0002806  71.8776  92.1876  1.00270986 48097
IRNSS-1A                
1 39199U 13034A   26203.69637116  .00000051  00000+0  00000+0 0  9998
2 39199  35.7966  63.3613 0018791 179.4799   3.3059  1.00271851 47728
MUOS-2                  
1 39206U 13036A   26204.78895801 -.00000011  00000+0  00000+0 0  9994
2 39206   5.0662  45.5555 0053397 176.4517 175.5240  1.00273843 47551
ALPHASAT                
1 39215U 13038A   26204.86878067  .00000138  00000+0  00000+0 0  9999
2 39215   2.9997   1.0984 0002644 138.3372 139.7895  1.00271379 44384
INSAT-3D                
1 39216U 13038B   26204.85181845 -.00000336  00000+0  00000+0 0  9991
2 39216   2.0179  82.0776 0001165  44.6693 250.9956  1.00272459 47442
WGS F6 (USA 244)        
1 39222U 13041A   26204.72808779  .00000094  00000+0  00000+0 0  9990
2 39222   0.0171  57.3069 0000459  25.8151 345.2489  1.00271411 46427
ES'HAIL 1               
1 39233U 13044A   26204.86919735  .00000148  00000+0  00000+0 0  9995
2 39233   0.0476  10.5253 0002483 103.5651 165.9011  1.00273066 46999
GSAT-7                  
1 39234U 13044B   26204.84081174 -.00000072  00000+0  00000+0 0  9998
2 39234   0.1721  89.2904 0002960 172.0773  56.8539  1.00272672 45620
AMOS-4                  
1 39237U 13045A   26204.83899171  .00000012  00000+0  00000+0 0  9998
2 39237   0.0065  34.8459 0001888  57.3675 216.3803  1.00272310 47323
AEHF-3 (USA 246)        
1 39256U 13050A   26204.60795902  .00000029  00000+0  00000+0 0  9995
2 39256   5.3806  66.8446 0088830 187.7395 141.3497  1.00273128 46014
ASTRA 2E                
1 39285U 13056A   26204.86364249  .00000155  00000+0  00000+0 0  9997
2 39285   0.0641 328.6108 0002512 152.5329 159.8154  1.00273174 46788
