OBJECT_NAME,OBJECT_ID,EPOCH,MEAN_MOTION,ECCENTRICITY,INCLINATION,RA_OF_ASC_NODE,ARG_OF_PERICENTER,MEAN_ANOMALY,EPHEMERIS_TYPE,CLASSIFICATION_TYPE,NORAD_CAT_ID,ELEMENT_SET_NO,REV_AT_EPOCH,BSTAR,MEAN_MOTION_DOT,MEAN_MOTION_DDOT
INTELSAT 23 (IS-23),2012-057A,2026-07-23T19:34:32.287008,1.00269114,.0000277,0.0202,310.4150,228.4039,3.3362,0,U,38867,999,5032,0,-.28E-5,0
BEIDOU-2 G6,2012-059A,2026-07-23T15:05:40.985376,1.00273149,.0008928,4.5115,73.1264,329.8199,208.8701,0,U,38953,999,5027,0,-.175E-5,0
LUCH-5B,2012-061A,2026-07-23T19:45:06.985728,1.00270938,.000388,10.5609,49.5130,141.5559,30.4474,0,U,38977,999,4997,0,-.141E-5,0
YAMAL 300K,2012-061B,2026-07-22T13:54:11.831904,1.00270995,.00001585,0.0092,114.3785,10.6714,206.7639,0,U,38978,999,4998,0,.75E-6,0
STAR ONE C3,2012-062A,2026-07-23T12:37:41.208096,1.00269775,.0002594,0.0177,52.3614,73.6373,289.6838,0,U,38991,999,5012,0,-.244E-5,0
EUTELSAT 21B,2012-062B,2026-07-23T19:55:41.255040,1.00275020,.0003236,0.0662,353.1076,138.8091,130.1602,0,U,38992,999,5019,0,.135E-5,0
ECHOSTAR 16,2012-065A,2026-07-23T17:49:32.264256,1.00271213,.0002134,0.0172,65.4051,53.5886,28.3631,0,U,39008,999,5001,0,-.277E-5,0
ZHONGXING-12,2012-067A,2026-07-22T20:17:34.415808,1.00270979,.000292,0.0204,121.3900,355.9520,215.1228,0,U,39017,999,4986,0,-.202E-5,0
EUTELSAT 70B,2012-069A,2026-07-23T20:09:46.228896,1.00270691,.0003435,0.0629,349.4801,132.4486,192.5782,0,U,39020,999,4987,0,-.38E-6,0
YAMAL 402,2012-070A,2026-07-22T16:42:53.955648,1.00273493,.00038558,1.3532,83.7147,31.0616,131.2827,0,U,39022,999,4975,0,.88E-6,0
SKYNET 5D,2012-075A,2026-07-23T20:04:46.707744,1.00276618,.0003825,0.0707,349.8636,142.9466,162.7334,0,U,39034,999,4952,0,.104E-5,0
MEXSAT 3,2012-075B,2026-07-23T15:22:48.588960,1.00276091,.0000957,0.0241,62.1207,61.5436,293.6422,0,U,39035,999,741,0,0,0
TDRS 11,2013-004A,2026-07-23T18:59:58.102080,1.00266198,.0005146,3.5744,31.8222,30.7662,349.6494,0,U,39070,999,4706,0,.82E-6,0
AMAZONAS 3,2013-006A,2026-07-23T19:32:17.503008,1.00270063,.0003697,0.0640,237.4217,275.3051,20.8640,0,U,39078,999,4528,0,-.277E-5,0
AZERSPACE 1,2013-006B,2026-07-23T20:02:46.900320,1.00273250,.0002279,0.0340,269.9213,238.8168,139.5032,0,U,39079,999,4917,0,.138E-5,0
SBIRS GEO-2 (USA 241),2013-011A,2026-07-23T12:44:48.025824,1.00271321,.0001845,4.5655,52.5001,67.8629,322.2994,0,U,39120,999,4890,0,-.285E-5,0
EUTELSAT 117 WEST A,2013-012A,2026-07-23T14:38:29.210784,1.00272347,.0003011,0.0278,304.6901,176.0459,283.4132,0,U,39122,999,4879,0,-.8E-7,0
ANIK G1,2013-014A,2026-07-23T14:11:04.567776,1.00272538,.0002185,0.0636,258.0416,228.9140,279.8346,0,U,39127,999,4861,0,-.69E-6,0
ZHONGXING-11,2013-020A,2026-07-23T20:17:37.976352,1.00272554,.000243,0.0357,279.2487,164.1668,260.4759,0,U,39157,999,4826,0,-.285E-5,0
EUTELSAT 7B,2013-022A,2026-07-23T21:07:38.548128,1.00272667,.0003157,0.0647,356.0840,57.5951,211.8218,0,U,39163,999,4831,0,.53E-6,0
WGS F5 (USA 243),2013-024A,2026-07-23T12:44:03.097824,1.00269796,.0000316,0.0234,61.1667,74.9413,303.6788,0,U,39168,999,4753,0,0,0
SES-6,2013-026A,2026-07-23T19:38:09.438720,1.00270986,.0002806,0.0178,31.5199,71.8776,92.1876,0,U,39172,999,4809,0,-.256E-5,0
IRNSS-1A,2013-034A,2026-07-22T16:42:46.468224,1.00271851,.00187917,35.7966,63.3613,179.4799,3.3059,0,U,39199,999,4772,0,.51E-6,0
MUOS-2,2013-036A,2026-07-23T18:56:05.972064,1.00273843,.0053397,5.0662,45.5555,176.4517,175.5240,0,U,39206,999,4755,0,-.11E-6,0
ALPHASAT,2013-038A,2026-07-23T20:51:02.649888,1.00271379,.0002644,2.9997,1.0984,138.3372,139.7895,0,U,39215,999,4438,0,.138E-5,0
INSAT-3D,2013-038B,2026-07-23T20:26:37.114080,1.00272459,.0001165,2.0179,82.0776,44.6693,250.9956,0,U,39216,999,4744,0,-.336E-5,0
WGS F6 (USA 244),2013-041A,2026-07-23T17:28:26.785056,1.00271411,.0000459,0.0171,57.3069,25.8151,345.2489,0,U,39222,999,4642,0,.94E-6,0
ES'HAIL 1,2013-044A,2026-07-23T20:51:38.651040,1.00273066,.0002483,0.0476,10.5253,103.5651,165.9011,0,U,39233,999,4699,0,.148E-5,0
GSAT-7,2013-044B,2026-07-23T20:10:46.134336,1.00272672,.000296,0.1721,89.2904,172.0773,56.8539,0,U,39234,999,4562,0,-.72E-6,0
AMOS-4,2013-045A,2026-07-23T20:08:08.883744,1.00272310,.0001888,0.0065,34.8459,57.3675,216.3803,0,U,39237,999,4732,0,.12E-6,0
AEHF-3 (USA 246),2013-050A,2026-07-23T14:35:27.659328,1.00273128,.008883,5.3806,66.8446,187.7395,141.3497,0,U,39256,999,4601,0,.29E-6,0
ASTRA 2E,2013-056A,2026-07-23T20:43:38.711136,1.00273174,.0002512,0.0641,328.6108,152.5329,159.8154,0,U,39285,999,4678,0,.155E-5,0
